CCSDS_OMM_VERS = 2.0
CREATION_DATE  = 
ORIGINATOR     = 

OBJECT_NAME    = STARLINK-36509
OBJECT_ID      = 2026-005E
CENTER_NAME    = EARTH
REF_FRAME      = TEME
TIME_SYSTEM    = UTC
MEAN_ELEMENT_THEORY = SGP/SGP4

EPOCH          = 2026-01-27T20:00:01.999008
MEAN_MOTION    = 15.71407015
ECCENTRICITY   = .0001352
INCLINATION    = 43.0004
RA_OF_ASC_NODE = 113.6516
ARG_OF_PERICENTER = 271.3220
MEAN_ANOMALY   = 3.2221

EPHEMERIS_TYPE = 0
CLASSIFICATION_TYPE = U
NORAD_CAT_ID   = 67408
ELEMENT_SET_NO = 999
REV_AT_EPOCH   = 361
BSTAR          = -.16909E-1
MEAN_MOTION_DOT = -.1964911E-1
MEAN_MOTION_DDOT = 0

CCSDS_OMM_VERS = 2.0
CREATION_DATE  = 
ORIGINATOR     = 

OBJECT_NAME    = STARLINK-36507
OBJECT_ID      = 2026-005F
CENTER_NAME    = EARTH
REF_FRAME      = TEME
TIME_SYSTEM    = UTC
MEAN_ELEMENT_THEORY = SGP/SGP4

EPOCH          = 2026-01-27T20:00:01.999008
MEAN_MOTION    = 15.71407796
ECCENTRICITY   = .0001373
INCLINATION    = 43.0005
RA_OF_ASC_NODE = 113.6482
ARG_OF_PERICENTER = 275.7696
MEAN_ANOMALY   = 0.6904

EPHEMERIS_TYPE = 0
CLASSIFICATION_TYPE = U
NORAD_CAT_ID   = 67409
ELEMENT_SET_NO = 999
REV_AT_EPOCH   = 361
BSTAR          = -.1692E-1
MEAN_MOTION_DOT = -.1966102E-1
MEAN_MOTION_DDOT = 0

CCSDS_OMM_VERS = 2.0
CREATION_DATE  = 
ORIGINATOR     = 

OBJECT_NAME    = STARLINK-36508
OBJECT_ID      = 2026-005G
CENTER_NAME    = EARTH
REF_FRAME      = TEME
TIME_SYSTEM    = UTC
MEAN_ELEMENT_THEORY = SGP/SGP4

EPOCH          = 2026-01-27T20:00:01.999008
MEAN_MOTION    = 15.71406210
ECCENTRICITY   = .0001364
INCLINATION    = 43.0005
RA_OF_ASC_NODE = 113.6430
ARG_OF_PERICENTER = 274.2221
MEAN_ANOMALY   = 4.1531

EPHEMERIS_TYPE = 0
CLASSIFICATION_TYPE = U
NORAD_CAT_ID   = 67410
ELEMENT_SET_NO = 999
REV_AT_EPOCH   = 361
BSTAR          = -.16867E-1
MEAN_MOTION_DOT = -.1960572E-1
MEAN_MOTION_DDOT = 0

CCSDS_OMM_VERS = 2.0
CREATION_DATE  = 
ORIGINATOR     = 

OBJECT_NAME    = STARLINK-36503
OBJECT_ID      = 2026-005H
CENTER_NAME    = EARTH
REF_FRAME      = TEME
TIME_SYSTEM    = UTC
MEAN_ELEMENT_THEORY = SGP/SGP4

EPOCH          = 2026-01-27T20:00:01.999008
MEAN_MOTION    = 15.71491548
ECCENTRICITY   = .0000922
INCLINATION    = 43.0005
RA_OF_ASC_NODE = 113.6371
ARG_OF_PERICENTER = 295.0174
MEAN_ANOMALY   = 345.3096

EPHEMERIS_TYPE = 0
CLASSIFICATION_TYPE = U
NORAD_CAT_ID   = 67411
ELEMENT_SET_NO = 999
REV_AT_EPOCH   = 335
BSTAR          = -.18592E-1
MEAN_MOTION_DOT = -.214184E-1
MEAN_MOTION_DDOT = 0

CCSDS_OMM_VERS = 2.0
CREATION_DATE  = 
ORIGINATOR     = 

OBJECT_NAME    = STARLINK-36446
OBJECT_ID      = 2026-005J
CENTER_NAME    = EARTH
REF_FRAME      = TEME
TIME_SYSTEM    = UTC
MEAN_ELEMENT_THEORY = SGP/SGP4

EPOCH          = 2026-01-27T20:00:01.999008
MEAN_MOTION    = 15.71410153
ECCENTRICITY   = .0001494
INCLINATION    = 43.0006
RA_OF_ASC_NODE = 113.6337
ARG_OF_PERICENTER = 271.9029
MEAN_ANOMALY   = 10.3064

EPHEMERIS_TYPE = 0
CLASSIFICATION_TYPE = U
NORAD_CAT_ID   = 67412
ELEMENT_SET_NO = 999
REV_AT_EPOCH   = 361
BSTAR          = -.16924E-1
MEAN_MOTION_DOT = -.196681E-1
MEAN_MOTION_DDOT = 0

CCSDS_OMM_VERS = 2.0
CREATION_DATE  = 
ORIGINATOR     = 

OBJECT_NAME    = STARLINK-36442
OBJECT_ID      = 2026-005K
CENTER_NAME    = EARTH
REF_FRAME      = TEME
TIME_SYSTEM    = UTC
MEAN_ELEMENT_THEORY = SGP/SGP4

EPOCH          = 2026-01-27T20:00:01.999008
MEAN_MOTION    = 15.71419812
ECCENTRICITY   = .0001408
INCLINATION    = 42.9998
RA_OF_ASC_NODE = 113.6280
ARG_OF_PERICENTER = 274.9134
MEAN_ANOMALY   = 9.2110

EPHEMERIS_TYPE = 0
CLASSIFICATION_TYPE = U
NORAD_CAT_ID   = 67413
ELEMENT_SET_NO = 999
REV_AT_EPOCH   = 361
BSTAR          = -.17076E-1
MEAN_MOTION_DOT = -.1983087E-1
MEAN_MOTION_DDOT = 0

CCSDS_OMM_VERS = 2.0
CREATION_DATE  = 
ORIGINATOR     = 

OBJECT_NAME    = STARLINK-36506
OBJECT_ID      = 2026-005L
CENTER_NAME    = EARTH
REF_FRAME      = TEME
TIME_SYSTEM    = UTC
MEAN_ELEMENT_THEORY = SGP/SGP4

EPOCH          = 2026-01-27T20:00:01.999008
MEAN_MOTION    = 15.71418459
ECCENTRICITY   = .0001459
INCLINATION    = 43.0002
RA_OF_ASC_NODE = 113.6232
ARG_OF_PERICENTER = 275.5768
MEAN_ANOMALY   = 10.4639

EPHEMERIS_TYPE = 0
CLASSIFICATION_TYPE = U
NORAD_CAT_ID   = 67414
ELEMENT_SET_NO = 999
REV_AT_EPOCH   = 361
BSTAR          = -.17043E-1
MEAN_MOTION_DOT = -.1979633E-1
MEAN_MOTION_DDOT = 0

CCSDS_OMM_VERS = 2.0
CREATION_DATE  = 
ORIGINATOR     = 

OBJECT_NAME    = STARLINK-36468
OBJECT_ID      = 2026-005M
CENTER_NAME    = EARTH
REF_FRAME      = TEME
TIME_SYSTEM    = UTC
MEAN_ELEMENT_THEORY = SGP/SGP4

EPOCH          = 2026-01-27T20:00:01.999008
MEAN_MOTION    = 15.71408257
ECCENTRICITY   = .0001594
INCLINATION    = 43.0002
RA_OF_ASC_NODE = 113.6187
ARG_OF_PERICENTER = 272.1742
MEAN_ANOMALY   = 15.7889

EPHEMERIS_TYPE = 0
CLASSIFICATION_TYPE = U
NORAD_CAT_ID   = 67415
ELEMENT_SET_NO = 999
REV_AT_EPOCH   = 356
BSTAR          = -.16916E-1
MEAN_MOTION_DOT = -.1965955E-1
MEAN_MOTION_DDOT = 0

CCSDS_OMM_VERS = 2.0
CREATION_DATE  = 
ORIGINATOR     = 

OBJECT_NAME    = STARLINK-36487
OBJECT_ID      = 2026-005N
CENTER_NAME    = EARTH
REF_FRAME      = TEME
TIME_SYSTEM    = UTC
MEAN_ELEMENT_THEORY = SGP/SGP4

EPOCH          = 2026-01-27T20:00:01.999008
MEAN_MOTION    = 15.71409910
ECCENTRICITY   = .0001496
INCLINATION    = 43.0002
RA_OF_ASC_NODE = 113.6134
ARG_OF_PERICENTER = 274.9783
MEAN_ANOMALY   = 14.9008

EPHEMERIS_TYPE = 0
CLASSIFICATION_TYPE = U
NORAD_CAT_ID   = 67416
ELEMENT_SET_NO = 999
REV_AT_EPOCH   = 361
BSTAR          = -.16936E-1
MEAN_MOTION_DOT = -.196807E-1
MEAN_MOTION_DDOT = 0

CCSDS_OMM_VERS = 2.0
CREATION_DATE  = 
ORIGINATOR     = 

OBJECT_NAME    = STARLINK-36374
OBJECT_ID      = 2026-005P
CENTER_NAME    = EARTH
REF_FRAME      = TEME
TIME_SYSTEM    = UTC
MEAN_ELEMENT_THEORY = SGP/SGP4

EPOCH          = 2026-01-27T20:00:01.999008
MEAN_MOTION    = 15.71413376
ECCENTRICITY   = .0001595
INCLINATION    = 43.0006
RA_OF_ASC_NODE = 113.6091
ARG_OF_PERICENTER = 276.4178
MEAN_ANOMALY   = 15.3752

EPHEMERIS_TYPE = 0
CLASSIFICATION_TYPE = U
NORAD_CAT_ID   = 67417
ELEMENT_SET_NO = 999
REV_AT_EPOCH   = 361
BSTAR          = -.16966E-1
MEAN_MOTION_DOT = -.1971462E-1
MEAN_MOTION_DDOT = 0

CCSDS_OMM_VERS = 2.0
CREATION_DATE  = 
ORIGINATOR     = 

OBJECT_NAME    = STARLINK-36455
OBJECT_ID      = 2026-005Q
CENTER_NAME    = EARTH
REF_FRAME      = TEME
TIME_SYSTEM    = UTC
MEAN_ELEMENT_THEORY = SGP/SGP4

EPOCH          = 2026-01-27T20:00:01.999008
MEAN_MOTION    = 15.71415631
ECCENTRICITY   = .0001556
INCLINATION    = 43.0007
RA_OF_ASC_NODE = 113.6039
ARG_OF_PERICENTER = 269.5757
MEAN_ANOMALY   = 24.1352

EPHEMERIS_TYPE = 0
CLASSIFICATION_TYPE = U
NORAD_CAT_ID   = 67418
ELEMENT_SET_NO = 999
REV_AT_EPOCH   = 361
BSTAR          = -.16995E-1
MEAN_MOTION_DOT = -.1974574E-1
MEAN_MOTION_DDOT = 0

CCSDS_OMM_VERS = 2.0
CREATION_DATE  = 
ORIGINATOR     = 

OBJECT_NAME    = STARLINK-36424
OBJECT_ID      = 2026-005R
CENTER_NAME    = EARTH
REF_FRAME      = TEME
TIME_SYSTEM    = UTC
MEAN_ELEMENT_THEORY = SGP/SGP4

EPOCH          = 2026-01-27T20:00:01.999008
MEAN_MOTION    = 15.71414317
ECCENTRICITY   = .0001318
INCLINATION    = 43.0000
RA_OF_ASC_NODE = 113.5993
ARG_OF_PERICENTER = 271.9891
MEAN_ANOMALY   = 23.6393

EPHEMERIS_TYPE = 0
CLASSIFICATION_TYPE = U
NORAD_CAT_ID   = 67419
ELEMENT_SET_NO = 999
REV_AT_EPOCH   = 361
BSTAR          = -.16998E-1
MEAN_MOTION_DOT = -.1974527E-1
MEAN_MOTION_DDOT = 0

