STARLINK-36509          
1 67408U 26005E   26027.83335647 -.01964911  00000+0 -16909-1 0  9992
2 67408  43.0004 113.6516 0001352 271.3220   3.2221 15.71407015  3610
STARLINK-36507          
1 67409U 26005F   26027.83335647 -.01966102  00000+0 -16920-1 0  9990
2 67409  43.0005 113.6482 0001373 275.7696   0.6904 15.71407796  3617
STARLINK-36508          
1 67410U 26005G   26027.83335647 -.01960572  00000+0 -16867-1 0  9997
2 67410  43.0005 113.6430 0001364 274.2221   4.1531 15.71406210  3615
STARLINK-36503          
1 67411U 26005H   26027.83335647 -.02141840  00000+0 -18592-1 0  9995
2 67411  43.0005 113.6371 0000922 295.0174 345.3096 15.71491548  3352
STARLINK-36446          
1 67412U 26005J   26027.83335647 -.01966810  00000+0 -16924-1 0  9994
2 67412  43.0006 113.6337 0001494 271.9029  10.3064 15.71410153  3619
STARLINK-36442          
1 67413U 26005K   26027.83335647 -.01983087  00000+0 -17076-1 0  9999
2 67413  42.9998 113.6280 0001408 274.9134   9.2110 15.71419812  3610
STARLINK-36506          
1 67414U 26005L   26027.83335647 -.01979633  00000+0 -17043-1 0  9996
2 67414  43.0002 113.6232 0001459 275.5768  10.4639 15.71418459  3618
STARLINK-36468          
1 67415U 26005M   26027.83335647 -.01965955  00000+0 -16916-1 0  9997
2 67415  43.0002 113.6187 0001594 272.1742  15.7889 15.71408257  3567
STARLINK-36487          
1 67416U 26005N   26027.83335647 -.01968070  00000+0 -16936-1 0  9991
2 67416  43.0002 113.6134 0001496 274.9783  14.9008 15.71409910  3613
STARLINK-36374          
1 67417U 26005P   26027.83335647 -.01971462  00000+0 -16966-1 0  9994
2 67417  43.0006 113.6091 0001595 276.4178  15.3752 15.71413376  3617
STARLINK-36455          
1 67418U 26005Q   26027.83335647 -.01974574  00000+0 -16995-1 0  9994
2 67418  43.0007 113.6039 0001556 269.5757  24.1352 15.71415631  3614
STARLINK-36424          
1 67419U 26005R   26027.83335647 -.01974527  00000+0 -16998-1 0  9996
2 67419  43.0000 113.5993 0001318 271.9891  23.6393 15.71414317  3617
